{"type": "FeatureCollection", "features": [ {"type": "Feature", "properties": {"norad_id": 28659, "name": "DIRECTV 8", "group": "intelsat", "lat": -0.03676114324968411, "lon": -44.72525871889702, "alt_km": 35775.45814644696, "timestamp": "2025-12-24T22:42:21.689768+00:00", "meta": {"OBJECT_NAME": "DIRECTV 8", "OBJECT_ID": "2005-019A", "EPOCH": "2025-12-24T05:59:38.935680", "MEAN_MOTION": 1.00271682, "ECCENTRICITY": 0.00029824, "INCLINATION": 0.0189, "RA_OF_ASC_NODE": 24.3341, "ARG_OF_PERICENTER": 258.2717, "MEAN_ANOMALY": 141.2924, "EPHEMERIS_TYPE": 0, "CLASSIFICATION_TYPE": "U", "NORAD_CAT_ID": 28659, "ELEMENT_SET_NO": 999, "REV_AT_EPOCH": 7531, "BSTAR": 0, "MEAN_MOTION_DOT": 2.2e-07, "MEAN_MOTION_DDOT": 0}, "tle": {"line1": "1 28659U 05019A   25358.24975620  .00000022  00000+0  00000+0 0  9995", "line2": "2 28659   0.0189  24.3341 0002982 258.2717 141.2924  1.00271682 75316"}}, "geometry": {"type": "Point", "coordinates": [-44.72525871889702, -0.03676114324968411]}}, {"type": "Feature", "properties": {"norad_id": 28702, "name": "GALAXY 28 (G-28)", "group": "intelsat", "lat": -2.8603748853356805, "lon": -8.480809977060447, "alt_km": 35700.30088046153, "timestamp": "2025-12-24T22:42:21.689781+00:00", "meta": {"OBJECT_NAME": "GALAXY 28 (G-28)", "OBJECT_ID": "2005-022A", "EPOCH": "2025-12-24T06:03:53.042400", "MEAN_MOTION": 1.00599953, "ECCENTRICITY": 0.00035926, "INCLINATION": 2.8492, "RA_OF_ASC_NODE": 81.1468, "ARG_OF_PERICENTER": 158.62, "MEAN_ANOMALY": 220.595, "EPHEMERIS_TYPE": 0, "CLASSIFICATION_TYPE": "U", "NORAD_CAT_ID": 28702, "ELEMENT_SET_NO": 999, "REV_AT_EPOCH": 5022, "BSTAR": 0, "MEAN_MOTION_DOT": -2.25e-06, "MEAN_MOTION_DDOT": 0}, "tle": {"line1": "1 28702U 05022A   25358.25269725 -.00000225  00000+0  00000+0 0  9997", "line2": "2 28702   2.8492  81.1468 0003592 158.6200 220.5950  1.00599953 50228"}}, "geometry": {"type": "Point", "coordinates": [-8.480809977060447, -2.8603748853356805]}}, {"type": "Feature", "properties": {"norad_id": 29236, "name": "GALAXY 16 (G-16)", "group": "intelsat", "lat": -0.0011620435043142284, "lon": -24.690126568796757, "alt_km": 35780.73320608035, "timestamp": "2025-12-24T22:42:21.689793+00:00", "meta": {"OBJECT_NAME": "GALAXY 16 (G-16)", "OBJECT_ID": "2006-023A", "EPOCH": "2025-12-24T05:18:53.057952", "MEAN_MOTION": 1.00271028, "ECCENTRICITY": 0.00025652, "INCLINATION": 0.0389, "RA_OF_ASC_NODE": 202.1465, "ARG_OF_PERICENTER": 74.0463, "MEAN_ANOMALY": 157.5166, "EPHEMERIS_TYPE": 0, "CLASSIFICATION_TYPE": "U", "NORAD_CAT_ID": 29236, "ELEMENT_SET_NO": 999, "REV_AT_EPOCH": 7121, "BSTAR": 0, "MEAN_MOTION_DOT": -1.06e-06, "MEAN_MOTION_DDOT": 0}, "tle": {"line1": "1 29236U 06023A   25358.22144743 -.00000106  00000+0  00000+0 0  9999", "line2": "2 29236   0.0389 202.1465 0002565  74.0463 157.5166  1.00271028 71219"}}, "geometry": {"type": "Point", "coordinates": [-24.690126568796757, -0.0011620435043142284]}}, {"type": "Feature", "properties": {"norad_id": 29494, "name": "DIRECTV 9S", "group": "intelsat", "lat": -1.8659002728671001, "lon": -26.886797108155385, "alt_km": 35779.123350743255, "timestamp": "2025-12-24T22:42:21.689805+00:00", "meta": {"OBJECT_NAME": "DIRECTV 9S", "OBJECT_ID": "2006-043A", "EPOCH": "2025-12-24T04:46:38.993952", "MEAN_MOTION": 1.00271943, "ECCENTRICITY": 0.00029439, "INCLINATION": 1.9679, "RA_OF_ASC_NODE": 83.0909, "ARG_OF_PERICENTER": 195.1538, "MEAN_ANOMALY": 145.1911, "EPHEMERIS_TYPE": 0, "CLASSIFICATION_TYPE": "U", "NORAD_CAT_ID": 29494, "ELEMENT_SET_NO": 999, "REV_AT_EPOCH": 4962, "BSTAR": 0, "MEAN_MOTION_DOT": -9.3e-07, "MEAN_MOTION_DDOT": 0}, "tle": {"line1": "1 29494U 06043A   25358.19906243 -.00000093  00000+0  00000+0 0  9999", "line2": "2 29494   1.9679  83.0909 0002943 195.1538 145.1911  1.00271943 49621"}}, "geometry": {"type": "Point", "coordinates": [-26.886797108155385, -1.8659002728671001]}}, {"type": "Feature", "properties": {"norad_id": 31307, "name": "GALAXY 17 (G-17)", "group": "intelsat", "lat": -2.5358775949377774, "lon": -10.640261171566154, "alt_km": 35788.76213036149, "timestamp": "2025-12-24T22:42:21.689816+00:00", "meta": {"OBJECT_NAME": "GALAXY 17 (G-17)", "OBJECT_ID": "2007-016B", "EPOCH": "2025-12-24T05:50:54.313152", "MEAN_MOTION": 1.00269284, "ECCENTRICITY": 0.00053646, "INCLINATION": 2.5271, "RA_OF_ASC_NODE": 82.1552, "ARG_OF_PERICENTER": 172.9559, "MEAN_ANOMALY": 200.6435, "EPHEMERIS_TYPE": 0, "CLASSIFICATION_TYPE": "U", "NORAD_CAT_ID": 31307, "ELEMENT_SET_NO": 999, "REV_AT_EPOCH": 6805, "BSTAR": 0, "MEAN_MOTION_DOT": -1.86e-06, "MEAN_MOTION_DDOT": 0}, "tle": {"line1": "1 31307U 07016B   25358.24368418 -.00000186  00000+0  00000+0 0  9991", "line2": "2 31307   2.5271  82.1552 0005364 172.9559 200.6435  1.00269284 68053"}}, "geometry": {"type": "Point", "coordinates": [-10.640261171566154, -2.5358775949377774]}}, {"type": "Feature", "properties": {"norad_id": 31862, "name": "DIRECTV 10", "group": "intelsat", "lat": -0.006511540093956527, "lon": -28.538821339972436, "alt_km": 35789.80858049108, "timestamp": "2025-12-24T22:42:21.689828+00:00", "meta": {"OBJECT_NAME": "DIRECTV 10", "OBJECT_ID": "2007-032A", "EPOCH": "2025-12-24T05:08:38.005728", "MEAN_MOTION": 1.0025857, "ECCENTRICITY": 6.623e-05, "INCLINATION": 0.009, "RA_OF_ASC_NODE": 110.3088, "ARG_OF_PERICENTER": 311.1465, "MEAN_ANOMALY": 5.9014, "EPHEMERIS_TYPE": 0, "CLASSIFICATION_TYPE": "U", "NORAD_CAT_ID": 31862, "ELEMENT_SET_NO": 999, "REV_AT_EPOCH": 4383, "BSTAR": 0, "MEAN_MOTION_DOT": -8e-07, "MEAN_MOTION_DDOT": 0}, "tle": {"line1": "1 31862U 07032A   25358.21432877 -.00000080  00000+0  00000+0 0  9996", "line2": "2 31862   0.0090 110.3088 0000662 311.1465   5.9014  1.00258570 43832"}}, "geometry": {"type": "Point", "coordinates": [-28.538821339972436, -0.006511540093956527]}}, {"type": "Feature", "properties": {"norad_id": 32253, "name": "INTELSAT 11 (IS-11)", "group": "intelsat", "lat": 0.763147706231725, "lon": -113.64537423828708, "alt_km": 36094.70242689449, "timestamp": "2025-12-24T22:42:21.689839+00:00", "meta": {"OBJECT_NAME": "INTELSAT 11 (IS-11)", "OBJECT_ID": "2007-044B", "EPOCH": "2025-12-24T05:36:51.715296", "MEAN_MOTION": 0.99053001, "ECCENTRICITY": 0.00085819, "INCLINATION": 3.1083, "RA_OF_ASC_NODE": 80.849, "ARG_OF_PERICENTER": 170.7151, "MEAN_ANOMALY": 100.8302, "EPHEMERIS_TYPE": 0, "CLASSIFICATION_TYPE": "U", "NORAD_CAT_ID": 32253, "ELEMENT_SET_NO": 999, "REV_AT_EPOCH": 6671, "BSTAR": 0, "MEAN_MOTION_DOT": -1.66e-06, "MEAN_MOTION_DDOT": 0}, "tle": {"line1": "1 32253U 07044B   25358.23393189 -.00000166  00000+0  00000+0 0  9993", "line2": "2 32253   3.1083  80.8490 0008581 170.7151 100.8302  0.99053001 66716"}}, "geometry": {"type": "Point", "coordinates": [-113.64537423828708, 0.763147706231725]}}, {"type": "Feature", "properties": {"norad_id": 32388, "name": "HORIZONS-2", "group": "intelsat", "lat": -2.1377916268769033, "lon": 0.5615024027040847, "alt_km": 35784.01589791063, "timestamp": "2025-12-24T22:42:21.689865+00:00", "meta": {"OBJECT_NAME": "HORIZONS-2", "OBJECT_ID": "2007-063B", "EPOCH": "2025-12-24T05:01:01.145856", "MEAN_MOTION": 1.0027005, "ECCENTRICITY": 0.00047204, "INCLINATION": 2.1496, "RA_OF_ASC_NODE": 82.8372, "ARG_OF_PERICENTER": 196.0554, "MEAN_ANOMALY": 175.5566, "EPHEMERIS_TYPE": 0, "CLASSIFICATION_TYPE": "U", "NORAD_CAT_ID": 32388, "ELEMENT_SET_NO": 999, "REV_AT_EPOCH": 6606, "BSTAR": 0, "MEAN_MOTION_DOT": -2.33e-06, "MEAN_MOTION_DDOT": 0}, "tle": {"line1": "1 32388U 07063B   25358.20904104 -.00000233  00000+0  00000+0 0  9990", "line2": "2 32388   2.1496  82.8372 0004720 196.0554 175.5566  1.00270050 66069"}}, "geometry": {"type": "Point", "coordinates": [0.5615024027040847, -2.1377916268769033]}}, {"type": "Feature", "properties": {"norad_id": 32729, "name": "DIRECTV 11", "group": "intelsat", "lat": 0.011782292122505322, "lon": -24.95601296204229, "alt_km": 35790.81701588712, "timestamp": "2025-12-24T22:42:21.689878+00:00", "meta": {"OBJECT_NAME": "DIRECTV 11", "OBJECT_ID": "2008-013A", "EPOCH": "2025-12-24T05:18:53.057952", "MEAN_MOTION": 1.00254729, "ECCENTRICITY": 6.191e-05, "INCLINATION": 0.0035, "RA_OF_ASC_NODE": 229.4392, "ARG_OF_PERICENTER": 193.9717, "MEAN_ANOMALY": 10.1076, "EPHEMERIS_TYPE": 0, "CLASSIFICATION_TYPE": "U", "NORAD_CAT_ID": 32729, "ELEMENT_SET_NO": 999, "REV_AT_EPOCH": 4383, "BSTAR": 0, "MEAN_MOTION_DOT": 0, "MEAN_MOTION_DDOT": 0}, "tle": {"line1": "1 32729U 08013A   25358.22144743  .00000000  00000+0  00000+0 0  9993", "line2": "2 32729   0.0035 229.4392 0000619 193.9717  10.1076  1.00254729 43830"}}, "geometry": {"type": "Point", "coordinates": [-24.95601296204229, 0.011782292122505322]}}, {"type": "Feature", "properties": {"norad_id": 32951, "name": "GALAXY 18 (G-18)", "group": "intelsat", "lat": -0.009184115180608578, "lon": -48.690507239477036, "alt_km": 35775.39900530127, "timestamp": "2025-12-24T22:42:21.689890+00:00", "meta": {"OBJECT_NAME": "GALAXY 18 (G-18)", "OBJECT_ID": "2008-024A", "EPOCH": "2025-12-24T06:07:38.601696", "MEAN_MOTION": 1.0027203, "ECCENTRICITY": 0.00029795, "INCLINATION": 0.0126, "RA_OF_ASC_NODE": 303.6949, "ARG_OF_PERICENTER": 334.5596, "MEAN_ANOMALY": 143.6815, "EPHEMERIS_TYPE": 0, "CLASSIFICATION_TYPE": "U", "NORAD_CAT_ID": 32951, "ELEMENT_SET_NO": 999, "REV_AT_EPOCH": 4409, "BSTAR": 0, "MEAN_MOTION_DOT": 4.6e-07, "MEAN_MOTION_DDOT": 0}, "tle": {"line1": "1 32951U 08024A   25358.25530789  .00000046  00000+0  00000+0 0  9994", "line2": "2 32951   0.0126 303.6949 0002979 334.5596 143.6815  1.00272030 44097"}}, "geometry": {"type": "Point", "coordinates": [-48.690507239477036, -0.009184115180608578]}}]}